APRIZESAT 2             
1 28366U 04025A   26190.27208912  .00000160  00000+0  62531-4 0  9992
2 28366  98.1034 355.0043 0105526 182.7174 177.3454 14.38045813154818
SAUDICOMSAT 1           
1 28369U 04025D   26192.00848543  .00000174  00000+0  51246-4 0  9994
2 28369  98.5775 202.7832 0031167 312.1480  47.7069 14.55491706167595
SAUDICOMSAT 2           
1 28370U 04025E   26192.00134640  .00000100  00000+0  37854-4 0  9990
2 28370  98.6642 204.9209 0055335 186.3969 173.6525 14.49993033163550
APRIZESAT 1             
1 28372U 04025G   26191.86569752  .00000137  00000+0  45711-4 0  9992
2 28372  98.6308 203.2358 0045815  83.4888 277.1519 14.51790419165345
NANOSAT-1               
1 28493U 04049B   26192.16710760  .00000573  00000+0  82664-4 0  9995
2 28493  98.2304 329.4187 0003475 197.7470 162.3620 14.80206182158996
SAUDICOMSAT 7           
1 31119U 07012C   26190.49815470  .00000353  00000+0  72306-4 0  9993
2 31119  98.3793 165.0881 0056758 125.7614 234.8886 14.66132899 25704
SAUDICOMSAT 6           
1 31121U 07012E   26191.14546664  .00000254  00000+0  58592-4 0  9996
2 31121  98.4113 159.0913 0070388 255.1142 104.2256 14.62582004 23546
SAUDICOMSAT 5           
1 31124U 07012H   26191.39447237  .00000419  00000+0  80789-4 0  9998
2 31124  98.3505 166.7451 0048489  53.6485 306.9180 14.68188346 27002
SAUDICOMSAT 3           
1 31125U 07012J   26191.17863623  .00000523  00000+0  93600-4 0  9998
2 31125  98.3159 167.0716 0038613 341.3426  18.6362 14.70745047 28208
SAUDICOMSAT 4           
1 31127U 07012L   26190.76938937  .00000267  00000+0  58823-4 0  9998
2 31127  98.3999 163.8022 0063168 186.6883 173.3482 14.64532489 24593
APRIZESAT 4             
1 35684U 09041D   26191.58820809  .00000399  00000+0  54416-4 0  9993
2 35684  98.1405 267.3745 0042009 244.8711 114.8142 14.83909911914832
APRIZESAT 3             
1 35686U 09041F   26191.23713804  .00001084  00000+0  98317-4 0  9993
2 35686  98.2087 345.5692 0061138 352.2425   7.7843 14.96300654919826
S-NET D                 
1 43186U 18014G   26191.61765389  .00003549  00000+0  18357-3 0  9997
2 43186  97.5340  96.2628 0006440 304.7096  55.3530 15.16892455462311
S-NET B                 
1 43187U 18014H   26192.15730542  .00003099  00000+0  16086-3 0  9998
2 43187  97.5347  96.7865 0007015 296.4851  63.5663 15.16864719462390
S-NET A                 
1 43188U 18014J   26191.61640197  .00003535  00000+0  18280-3 0  9998
2 43188  97.5357  96.4623 0006933 299.5267  60.5274 15.16900764462312
S-NET C                 
1 43189U 18014K   26192.16130794  .00003002  00000+0  15591-3 0  9998
2 43189  97.5373  97.0821 0008173 287.3834  72.6505 15.16855977460944
SALSAT                  
1 46495U 20068K   26191.42889773  .00005381  00000+0  18731-3 0  9990
2 46495  97.8857 195.9138 0008699 210.5134 149.5600 15.30129687318917
OOV-CUBE (TUBSAT-30)    
1 60240U 24128F   26190.61158508  .00001327  00000+0  11249-3 0  9993
2 60240  61.9941 147.3745 0041807 138.6970 221.7297 15.02859618109486
LPNTSAT-001 (IOD-1)     
1 68408U 26065A   26192.12741743  .00001447  00000+0  72936-4 0  9990
2 68408  97.3992  72.1288 0014663 282.2437  77.7156 15.18656442 15891
2026-158A               
1 69972U 26158A   26192.20041824 -.00000104  00000+0  23708-4 0  9995
2 69972  49.9854 297.2778 0004947 288.0407  71.9967 14.25146648   133
2026-158B               
1 69973U 26158B   26192.20059846 -.00000106  00000+0  22777-4 0  9996
2 69973  49.9857 297.2778 0005703 298.9027  61.1314 14.24885391   137
